[{"OBJECT_NAME":"SES-3","OBJECT_ID":"2011-035A","EPOCH":"2026-04-04T12:17:45.960000","MEAN_MOTION":1.00271518,"ECCENTRICITY":0.0003458,"INCLINATION":1.1362,"RA_OF_ASC_NODE":83.8506,"ARG_OF_PERICENTER":295.8621,"MEAN_ANOMALY":254.5472,"EPHEMERIS_TYPE":0,"CLASSIFICATION_TYPE":"U","NORAD_CAT_ID":37748,"ELEMENT_SET_NO":999,"REV_AT_EPOCH":5385,"BSTAR":0,"MEAN_MOTION_DOT":-1.01e-6,"MEAN_MOTION_DDOT":0},{"OBJECT_NAME":"KAZSAT-2","OBJECT_ID":"2011-035B","EPOCH":"2026-04-04T05:17:38.867136","MEAN_MOTION":1.00270853,"ECCENTRICITY":0.00012774,"INCLINATION":0.0396,"RA_OF_ASC_NODE":327.0971,"ARG_OF_PERICENTER":117.4627,"MEAN_ANOMALY":273.8965,"EPHEMERIS_TYPE":0,"CLASSIFICATION_TYPE":"U","NORAD_CAT_ID":37749,"ELEMENT_SET_NO":999,"REV_AT_EPOCH":5265,"BSTAR":0,"MEAN_MOTION_DOT":-1.98e-6,"MEAN_MOTION_DDOT":0},{"OBJECT_NAME":"ASTRA 1N","OBJECT_ID":"2011-041A","EPOCH":"2026-04-04T02:09:38.651616","MEAN_MOTION":1.00269556,"ECCENTRICITY":0.00050447,"INCLINATION":0.0874,"RA_OF_ASC_NODE":41.2005,"ARG_OF_PERICENTER":359.6758,"MEAN_ANOMALY":203.1299,"EPHEMERIS_TYPE":0,"CLASSIFICATION_TYPE":"U","NORAD_CAT_ID":37775,"ELEMENT_SET_NO":999,"REV_AT_EPOCH":4378,"BSTAR":0,"MEAN_MOTION_DOT":1.19e-6,"MEAN_MOTION_DDOT":0},{"OBJECT_NAME":"BSAT-3C (JCSAT-110R)","OBJECT_ID":"2011-041B","EPOCH":"2026-04-03T23:37:10.190208","MEAN_MOTION":1.00283675,"ECCENTRICITY":3.629e-5,"INCLINATION":0.0464,"RA_OF_ASC_NODE":38.8948,"ARG_OF_PERICENTER":14.5663,"MEAN_ANOMALY":243.1013,"EPHEMERIS_TYPE":0,"CLASSIFICATION_TYPE":"U","NORAD_CAT_ID":37776,"ELEMENT_SET_NO":999,"REV_AT_EPOCH":4972,"BSTAR":0,"MEAN_MOTION_DOT":-3.53e-6,"MEAN_MOTION_DDOT":0},{"OBJECT_NAME":"PAKSAT-1R","OBJECT_ID":"2011-042A","EPOCH":"2026-04-04T04:31:02.667648","MEAN_MOTION":1.00278412,"ECCENTRICITY":0.0003104,"INCLINATION":0.4971,"RA_OF_ASC_NODE":85.1589,"ARG_OF_PERICENTER":321.6266,"MEAN_ANOMALY":251.453,"EPHEMERIS_TYPE":0,"CLASSIFICATION_TYPE":"U","NORAD_CAT_ID":37779,"ELEMENT_SET_NO":999,"REV_AT_EPOCH":5373,"BSTAR":0,"MEAN_MOTION_DOT":1.53e-6,"MEAN_MOTION_DDOT":0},{"OBJECT_NAME":"ZHONGXING-1A","OBJECT_ID":"2011-047A","EPOCH":"2026-04-04T05:10:00.764832","MEAN_MOTION":1.00042677,"ECCENTRICITY":0.00039678,"INCLINATION":3.5281,"RA_OF_ASC_NODE":79.2857,"ARG_OF_PERICENTER":278.5873,"MEAN_ANOMALY":109.2272,"EPHEMERIS_TYPE":0,"CLASSIFICATION_TYPE":"U","NORAD_CAT_ID":37804,"ELEMENT_SET_NO":999,"REV_AT_EPOCH":2659,"BSTAR":0,"MEAN_MOTION_DOT":1.09e-6,"MEAN_MOTION_DDOT":0},{"OBJECT_NAME":"COSMOS 2473","OBJECT_ID":"2011-048A","EPOCH":"2026-04-04T05:11:23.134272","MEAN_MOTION":1.00223111,"ECCENTRICITY":0.00041357,"INCLINATION":5.3901,"RA_OF_ASC_NODE":74.3817,"ARG_OF_PERICENTER":149.6877,"MEAN_ANOMALY":248.3611,"EPHEMERIS_TYPE":0,"CLASSIFICATION_TYPE":"U","NORAD_CAT_ID":37806,"ELEMENT_SET_NO":999,"REV_AT_EPOCH":673,"BSTAR":0,"MEAN_MOTION_DOT":1.33e-6,"MEAN_MOTION_DDOT":0},{"OBJECT_NAME":"SES-2","OBJECT_ID":"2011-049A","EPOCH":"2026-04-04T04:18:38.607264","MEAN_MOTION":1.00272411,"ECCENTRICITY":0.00029484,"INCLINATION":0.0544,"RA_OF_ASC_NODE":65.7512,"ARG_OF_PERICENTER":309.8626,"MEAN_ANOMALY":154.5451,"EPHEMERIS_TYPE":0,"CLASSIFICATION_TYPE":"U","NORAD_CAT_ID":37809,"ELEMENT_SET_NO":999,"REV_AT_EPOCH":5322,"BSTAR":0,"MEAN_MOTION_DOT":-1.97e-6,"MEAN_MOTION_DDOT":0},{"OBJECT_NAME":"ARABSAT-5C","OBJECT_ID":"2011-049B","EPOCH":"2026-04-04T04:39:38.850624","MEAN_MOTION":1.00270748,"ECCENTRICITY":0.00027731,"INCLINATION":0.0559,"RA_OF_ASC_NODE":22.1436,"ARG_OF_PERICENTER":354.279,"MEAN_ANOMALY":265.9839,"EPHEMERIS_TYPE":0,"CLASSIFICATION_TYPE":"U","NORAD_CAT_ID":37810,"ELEMENT_SET_NO":999,"REV_AT_EPOCH":5329,"BSTAR":0,"MEAN_MOTION_DOT":1.22e-6,"MEAN_MOTION_DDOT":0},{"OBJECT_NAME":"EUTELSAT 7 WEST A","OBJECT_ID":"2011-051A","EPOCH":"2026-04-04T04:11:43.855296","MEAN_MOTION":1.00272662,"ECCENTRICITY":0.00016201,"INCLINATION":0.0774,"RA_OF_ASC_NODE":29.8657,"ARG_OF_PERICENTER":90.212,"MEAN_ANOMALY":128.0056,"EPHEMERIS_TYPE":0,"CLASSIFICATION_TYPE":"U","NORAD_CAT_ID":37816,"ELEMENT_SET_NO":999,"REV_AT_EPOCH":5313,"BSTAR":0,"MEAN_MOTION_DOT":-6.1e-7,"MEAN_MOTION_DDOT":0},{"OBJECT_NAME":"QUETZSAT 1","OBJECT_ID":"2011-054A","EPOCH":"2026-04-04T05:34:28.419168","MEAN_MOTION":1.00272088,"ECCENTRICITY":0.0002321,"INCLINATION":0.0494,"RA_OF_ASC_NODE":59.2742,"ARG_OF_PERICENTER":313.5282,"MEAN_ANOMALY":186.374,"EPHEMERIS_TYPE":0,"CLASSIFICATION_TYPE":"U","NORAD_CAT_ID":37826,"ELEMENT_SET_NO":999,"REV_AT_EPOCH":4913,"BSTAR":0,"MEAN_MOTION_DOT":-2.42e-6,"MEAN_MOTION_DDOT":0},{"OBJECT_NAME":"INTELSAT 18 (IS-18)","OBJECT_ID":"2011-056A","EPOCH":"2026-04-04T05:05:08.731968","MEAN_MOTION":1.00273746,"ECCENTRICITY":0.00019789,"INCLINATION":0.0177,"RA_OF_ASC_NODE":250.8938,"ARG_OF_PERICENTER":124.3087,"MEAN_ANOMALY":73.611,"EPHEMERIS_TYPE":0,"CLASSIFICATION_TYPE":"U","NORAD_CAT_ID":37834,"ELEMENT_SET_NO":999,"REV_AT_EPOCH":5306,"BSTAR":0,"MEAN_MOTION_DOT":5.3e-7,"MEAN_MOTION_DDOT":0},{"OBJECT_NAME":"EUTELSAT 16A","OBJECT_ID":"2011-057A","EPOCH":"2026-04-04T04:39:38.850624","MEAN_MOTION":1.00272864,"ECCENTRICITY":0.00055476,"INCLINATION":0.0583,"RA_OF_ASC_NODE":14.9844,"ARG_OF_PERICENTER":2.3828,"MEAN_ANOMALY":261.0447,"EPHEMERIS_TYPE":0,"CLASSIFICATION_TYPE":"U","NORAD_CAT_ID":37836,"ELEMENT_SET_NO":999,"REV_AT_EPOCH":659,"BSTAR":0,"MEAN_MOTION_DOT":1.03e-6,"MEAN_MOTION_DDOT":0},{"OBJECT_NAME":"VIASAT-1","OBJECT_ID":"2011-059A","EPOCH":"2026-04-04T13:56:59.532576","MEAN_MOTION":1.0027313,"ECCENTRICITY":0.0002529,"INCLINATION":0.0181,"RA_OF_ASC_NODE":225.8067,"ARG_OF_PERICENTER":152.4126,"MEAN_ANOMALY":268.8224,"EPHEMERIS_TYPE":0,"CLASSIFICATION_TYPE":"U","NORAD_CAT_ID":37843,"ELEMENT_SET_NO":999,"REV_AT_EPOCH":4658,"BSTAR":0,"MEAN_MOTION_DOT":-2.4e-7,"MEAN_MOTION_DDOT":0},{"OBJECT_NAME":"ASIASAT 7","OBJECT_ID":"2011-069A","EPOCH":"2026-04-04T01:18:30.470112","MEAN_MOTION":1.00274928,"ECCENTRICITY":0.0001782,"INCLINATION":0.0181,"RA_OF_ASC_NODE":186.3144,"ARG_OF_PERICENTER":188.4836,"MEAN_ANOMALY":302.6876,"EPHEMERIS_TYPE":0,"CLASSIFICATION_TYPE":"U","NORAD_CAT_ID":37933,"ELEMENT_SET_NO":999,"REV_AT_EPOCH":4411,"BSTAR":0,"MEAN_MOTION_DOT":-3.35e-6,"MEAN_MOTION_DDOT":0},{"OBJECT_NAME":"AMOS-5","OBJECT_ID":"2011-074A","EPOCH":"2026-04-03T21:52:35.857632","MEAN_MOTION":1.00186676,"ECCENTRICITY":0.00025652,"INCLINATION":8.6445,"RA_OF_ASC_NODE":61.5532,"ARG_OF_PERICENTER":332.1999,"MEAN_ANOMALY":230.5414,"EPHEMERIS_TYPE":0,"CLASSIFICATION_TYPE":"U","NORAD_CAT_ID":37950,"ELEMENT_SET_NO":999,"REV_AT_EPOCH":5225,"BSTAR":0,"MEAN_MOTION_DOT":-3.15e-6,"MEAN_MOTION_DDOT":0},{"OBJECT_NAME":"LUCH-5A","OBJECT_ID":"2011-074B","EPOCH":"2026-04-04T05:31:38.645760","MEAN_MOTION":1.00271206,"ECCENTRICITY":0.00031768,"INCLINATION":8.567,"RA_OF_ASC_NODE":74.881,"ARG_OF_PERICENTER":284.46,"MEAN_ANOMALY":83.044,"EPHEMERIS_TYPE":0,"CLASSIFICATION_TYPE":"U","NORAD_CAT_ID":37951,"ELEMENT_SET_NO":999,"REV_AT_EPOCH":5231,"BSTAR":0,"MEAN_MOTION_DOT":-4.7e-7,"MEAN_MOTION_DDOT":0}]
